ONEWEB-0108             
1 48076U 21025AL  23230.11746456  .00000420  00000+0  11138-2 0  9990
2 48076  87.9086 165.9114 0001872  78.6124 281.5215 13.13472161117910
ONEWEB-0169             
1 48077U 21025AM  23230.37561213  .00000027  00000+0  37896-4 0  9999
2 48077  87.9088 165.8609 0001713  73.0176 287.1140 13.13467481117830
ONEWEB-0176             
1 48210U 21031A   23230.04197917  .00000177  00000+0  44279-3 0  9993
2 48210  87.9041 135.5523 0001939  77.8480 282.2867 13.14504630113744
ONEWEB-0184             
1 48211U 21031B   23230.01660408  .00000056  00000+0  11771-3 0  9998
2 48211  87.9044 135.5358 0002646 101.8413 258.3013 13.14501788112426
ONEWEB-0179             
1 48212U 21031C   23229.98489761 -.00000069  00000+0 -21946-3 0  9995
2 48212  87.9043 135.5377 0002189  73.2325 286.9044 13.14502945112464
ONEWEB-0180             
1 48213U 21031D   23230.24707659 -.00000025  00000+0 -10162-3 0  9996
2 48213  87.9046 135.4876 0002220  73.6870 286.4504 13.14502834112380
ONEWEB-0218             
1 48214U 21031E   23230.03986594  .00000214  00000+0  54201-3 0  9991
2 48214  87.9042 135.5315 0002991  94.1725 265.9746 13.14504615112512
ONEWEB-0209             
1 48215U 21031F   23230.25765632  .00000265  00000+0  68067-3 0  9995
2 48215  87.9044 135.5279 0002049  75.1092 285.0264 13.14504368112540
